#
# this file is automatically produced by convkeps.pl
#
# Last update: Fri Mar 10 21:50:41 2000
#

package Sun;

%keps = (
  'AO-21' => {
    orbit => '45504',
    raan => '44.8382',
    meananomaly => '308.1882',
    eccentricity => '0.0037151',
    meanmotion => '13.74676183',
    inclination => '82.9413',
    number => '91006',
    argperigee => '52.263',
    mm1 => '9.4e-07',
    mm2 => '0',
    bstar => '8.2657e-05',
    id => '21087',
    elset => '126',
    epoch => '55.04478562'
  },
  RESURS => {
    orbit => '8443',
    raan => '131.9262',
    meananomaly => '310.6297',
    eccentricity => '0.0002216',
    meanmotion => '14.22645291',
    inclination => '98.7322',
    number => '98043',
    argperigee => '49.5073',
    mm1 => '1.8e-06',
    mm2 => '0',
    bstar => '0.0001',
    id => '25394',
    elset => '636',
    epoch => '55.19759633'
  },
  'FO-20' => {
    orbit => '47063',
    raan => '206.8836',
    meananomaly => '41.8281',
    eccentricity => '0.0540591',
    meanmotion => '12.83263739',
    inclination => '99.0336',
    number => '90013',
    argperigee => '313.9365',
    mm1 => '6e-08',
    mm2 => '0',
    bstar => '9.4125e-05',
    id => '20480',
    elset => '215',
    epoch => '55.00655806'
  },
  'RS-10/11' => {
    orbit => '63501',
    raan => '232.3675',
    meananomaly => '341.4203',
    eccentricity => '0.0012682',
    meanmotion => '13.72469666',
    inclination => '82.9238',
    number => '87054',
    argperigee => '18.7412',
    mm1 => '8.8e-07',
    mm2 => '0',
    bstar => '8.0074e-05',
    id => '18129',
    elset => '745',
    epoch => '55.78911157'
  },
  OCS => {
    orbit => '401',
    raan => '256.7489',
    meananomaly => '255.4253',
    eccentricity => '0.0034688',
    meanmotion => '14.35475549',
    inclination => '100.2269',
    number => '4',
    argperigee => '105.0762',
    mm1 => '0.00023936',
    mm2 => '0',
    bstar => '0.008258',
    id => '26062',
    elset => '56',
    epoch => '55.06872629'
  },
  'AO-27' => {
    orbit => '33420',
    raan => '116.3749',
    meananomaly => '124.8325',
    eccentricity => '0.0007651',
    meanmotion => '14.28040245',
    inclination => '98.4254',
    number => '93061',
    argperigee => '235.2137',
    mm1 => '1.87e-06',
    mm2 => '0',
    bstar => '9.2263e-05',
    id => '22825',
    elset => '810',
    epoch => '55.18023813'
  },
  POSAT => {
    orbit => '33430',
    raan => '117.3109',
    meananomaly => '139.7258',
    eccentricity => '0.0009167',
    meanmotion => '14.28576161',
    inclination => '98.4253',
    number => '93061',
    argperigee => '220.3245',
    mm1 => '2.66e-06',
    mm2 => '0',
    bstar => '0.00012297',
    id => '22829',
    elset => '803',
    epoch => '55.16060386'
  },
  MIR => {
    orbit => '80119',
    raan => '123.6828',
    meananomaly => '15.6847',
    eccentricity => '0.0004468',
    meanmotion => '15.73737679',
    inclination => '51.6523',
    number => '86017',
    argperigee => '344.4011',
    mm1 => '0.00047916',
    mm2 => '0',
    bstar => '0.00033536',
    id => '16609',
    elset => '383',
    epoch => '55.23504964'
  },
  'RS-12/13' => {
    orbit => '45401',
    raan => '270.3679',
    meananomaly => '277.3926',
    eccentricity => '0.0030625',
    meanmotion => '13.74171497',
    inclination => '82.9218',
    number => '91007',
    argperigee => '83.0711',
    mm1 => '1.15e-06',
    mm2 => '0',
    bstar => '0.000106',
    id => '21089',
    elset => '232',
    epoch => '55.12988635'
  },
  'MET-3/5' => {
    orbit => '41005',
    raan => '88.5942',
    meananomaly => '314.9262',
    eccentricity => '0.0014508',
    meanmotion => '13.16893476',
    inclination => '82.5552',
    number => '91056',
    argperigee => '45.304',
    mm1 => '5.1e-07',
    mm2 => '0',
    bstar => '0.0001',
    id => '21655',
    elset => '224',
    epoch => '55.90614939'
  },
  JAWSAT => {
    orbit => '325',
    raan => '250.5473',
    meananomaly => '233.2005',
    eccentricity => '0.0038588',
    meanmotion => '14.34077822',
    inclination => '100.227',
    number => '4',
    argperigee => '127.2698',
    mm1 => '5.74e-06',
    mm2 => '0',
    bstar => '0.00022448',
    id => '26065',
    elset => '26',
    epoch => '49.84740159'
  },
  'KO-23' => {
    orbit => '35414',
    raan => '247.6141',
    meananomaly => '9.8386',
    eccentricity => '0.0002789',
    meanmotion => '12.86335599',
    inclination => '66.0803',
    number => '92052',
    argperigee => '350.2578',
    mm1 => '-3.7e-07',
    mm2 => '0',
    bstar => '0.0001',
    id => '22077',
    elset => '896',
    epoch => '55.88347603'
  },
  'NOAA-10' => {
    orbit => '69867',
    raan => '42.9446',
    meananomaly => '335.595',
    eccentricity => '0.001298',
    meanmotion => '14.25572734',
    inclination => '98.6345',
    number => '86073',
    argperigee => '24.6337',
    mm1 => '4.84e-06',
    mm2 => '0',
    bstar => '0.00020435',
    id => '16969',
    elset => '329',
    epoch => '55.75865954'
  },
  'IO-26' => {
    orbit => '33423',
    raan => '116.9744',
    meananomaly => '123.5794',
    eccentricity => '0.0008361',
    meanmotion => '14.28175367',
    inclination => '98.4272',
    number => '93061',
    argperigee => '236.4587',
    mm1 => '2.39e-06',
    mm2 => '0',
    bstar => '0.00011284',
    id => '22826',
    elset => '794',
    epoch => '55.20798585'
  },
  'FO-29' => {
    orbit => '17388',
    raan => '338.0222',
    meananomaly => '199.6574',
    eccentricity => '0.035156',
    meanmotion => '13.52700786',
    inclination => '98.5893',
    number => '96046',
    argperigee => '161.7557',
    mm1 => '3.3e-07',
    mm2 => '0',
    bstar => '6.8789e-05',
    id => '24278',
    elset => '311',
    epoch => '55.21404985'
  },
  'NOAA-11' => {
    orbit => '58878',
    raan => '118.9649',
    meananomaly => '310.7301',
    eccentricity => '0.0011823',
    meanmotion => '14.13513969',
    inclination => '99.0167',
    number => '88089',
    argperigee => '49.5506',
    mm1 => '3.22e-06',
    mm2 => '0',
    bstar => '0.00017117',
    id => '19531',
    elset => '184',
    epoch => '55.75557869'
  },
  'KO-25' => {
    orbit => '30239',
    raan => '117.1308',
    meananomaly => '140.8325',
    eccentricity => '0.0009321',
    meanmotion => '14.28560535',
    inclination => '98.4238',
    number => '93061',
    argperigee => '219.218',
    mm1 => '2.57e-06',
    mm2 => '0',
    bstar => '0.00011907',
    id => '22828',
    elset => '765',
    epoch => '55.20605529'
  },
  ISS => {
    orbit => '7213',
    raan => '358.9814',
    meananomaly => '231.7585',
    eccentricity => '0.0006435',
    meanmotion => '15.67292205',
    inclination => '51.5907',
    number => '98067',
    argperigee => '215.0197',
    mm1 => '0.00041621',
    mm2 => '0',
    bstar => '0.00038173',
    id => '25544',
    elset => '384',
    epoch => '55.97739163'
  },
  'NOAA-12' => {
    orbit => '45598',
    raan => '54.095',
    meananomaly => '53.6307',
    eccentricity => '0.0012336',
    meanmotion => '14.23289747',
    inclination => '98.5449',
    number => '91032',
    argperigee => '322.2106',
    mm1 => '5.59e-06',
    mm2 => '0',
    bstar => '0.0002653',
    id => '21263',
    elset => '624',
    epoch => '55'
  },
  'NOAA-14' => {
    orbit => '26562',
    raan => '32.1347',
    meananomaly => '149.7921',
    eccentricity => '0.0010512',
    meanmotion => '14.1218021',
    inclination => '99.1272',
    number => '94089',
    argperigee => '51.0294',
    mm1 => '4.89e-06',
    mm2 => '0',
    bstar => '0.0002913',
    id => '23455',
    elset => '235',
    epoch => '56'
  },
  'NOAA-15' => {
    orbit => '9262',
    raan => '85.8357',
    meananomaly => '121.6789',
    eccentricity => '0.0009834',
    meanmotion => '14.23102794',
    inclination => '98.6488',
    number => '98030',
    argperigee => '246.6596',
    mm1 => '3.4e-06',
    mm2 => '0',
    bstar => '0.00016998',
    id => '25338',
    elset => '699',
    epoch => '55'
  },
  'UO-22' => {
    orbit => '45153',
    raan => '88.4178',
    meananomaly => '183.3218',
    eccentricity => '0.0007404',
    meanmotion => '14.37539469',
    inclination => '98.1674',
    number => '91050',
    argperigee => '176.8017',
    mm1 => '3.71e-06',
    mm2 => '0',
    bstar => '0.00013743',
    id => '21575',
    elset => '10',
    epoch => '55.14606426'
  },
  UARS => {
    orbit => '46206',
    raan => '108.4081',
    meananomaly => '254.9463',
    eccentricity => '0.0005738',
    meanmotion => '14.97952118',
    inclination => '56.9842',
    number => '91063',
    argperigee => '105.2199',
    mm1 => '7.7e-06',
    mm2 => '0',
    bstar => '8.5319e-05',
    id => '21701',
    elset => '127',
    epoch => '55.21944444'
  },
  'AO-10' => {
    orbit => '12559',
    raan => '344.1162',
    meananomaly => '353.6536',
    eccentricity => '0.6020005',
    meanmotion => '2.05871468',
    inclination => '27.0507',
    number => '83058',
    argperigee => '30.1507',
    mm1 => '-3.9e-07',
    mm2 => '0',
    bstar => '0.0001',
    id => '14129',
    elset => '627',
    epoch => '55.85698212'
  },
  UNK1 => {
    orbit => '161',
    raan => '256.8851',
    meananomaly => '248.7375',
    eccentricity => '0.0036202',
    meanmotion => '14.34089814',
    inclination => '100.2226',
    number => '4',
    argperigee => '111.7679',
    mm1 => '1.451e-05',
    mm2 => '0',
    bstar => '0.00053556',
    id => '26091',
    elset => '50',
    epoch => '55.21835811'
  },
  UNK2 => {
    orbit => '163',
    raan => '256.8764',
    meananomaly => '248.6397',
    eccentricity => '0.0037751',
    meanmotion => '14.34473152',
    inclination => '100.2164',
    number => '4',
    argperigee => '111.8772',
    mm1 => '1.052e-05',
    mm2 => '0',
    bstar => '0.00039087',
    id => '26092',
    elset => '23',
    epoch => '55.2152047'
  },
  UNK3 => {
    orbit => '185',
    raan => '256.8941',
    meananomaly => '247.4585',
    eccentricity => '0.003854',
    meanmotion => '14.34279508',
